{
  "type": "FeatureCollection",
  "features": [
    {
      "type": "Feature",
      "properties": {
        "norad_id": 35777,
        "name": "COSMOS 2251 DEB",
        "group": "cosmos-2251-debris",
        "lat": -4.92658229867238,
        "lon": 159.9051832253648,
        "alt_km": 879.7097706378772,
        "timestamp": "2025-12-02T21:34:01.667365+00:00",
        "meta_object_name": "COSMOS 2251 DEB",
        "meta_object_id": "1993-036ARX",
        "meta_epoch": "2025-12-02T10:40:29.463744",
        "meta_mean_motion": 13.41287955,
        "meta_eccentricity": 0.0452803,
        "meta_inclination": 73.7709,
        "meta_ra_of_asc_node": 339.1914,
        "meta_arg_of_pericenter": 235.501,
        "meta_mean_anomaly": 282.7283,
        "meta_ephemeris_type": 0,
        "meta_classification_type": "U",
        "meta_norad_cat_id": 35777,
        "meta_element_set_no": 999,
        "meta_rev_at_epoch": 79546,
        "meta_bstar": 0.00081767,
        "meta_mean_motion_dot": 8.07e-06,
        "meta_mean_motion_ddot": 0,
        "tle_line1": "1 35777U 93036ARX 25336.44478546  .00000807  00000+0  81767-3 0  9997",
        "tle_line2": "2 35777  73.7709 339.1914 0452803 235.5010 282.7283 13.41287955795460"
      },
      "geometry": {
        "type": "Point",
        "coordinates": [
          159.9051832253648,
          -4.92658229867238
        ]
      }
    },
    {
      "type": "Feature",
      "properties": {
        "norad_id": 35784,
        "name": "COSMOS 2251 DEB",
        "group": "cosmos-2251-debris",
        "lat": 25.624608076100397,
        "lon": -79.70603935191043,
        "alt_km": 723.0208700916455,
        "timestamp": "2025-12-02T21:34:01.667375+00:00",
        "meta_object_name": "COSMOS 2251 DEB",
        "meta_object_id": "1993-036ASE",
        "meta_epoch": "2025-11-30T02:37:28.354944",
        "meta_mean_motion": 14.49985321,
        "meta_eccentricity": 0.00421284,
        "meta_inclination": 74.0362,
        "meta_ra_of_asc_node": 113.4211,
        "meta_arg_of_pericenter": 246.5375,
        "meta_mean_anomaly": 113.1355,
        "meta_ephemeris_type": 0,
        "meta_classification_type": "U",
        "meta_norad_cat_id": 35784,
        "meta_element_set_no": 999,
        "meta_rev_at_epoch": 65523,
        "meta_bstar": 0.00039422851,
        "meta_mean_motion_dot": 1.515e-05,
        "meta_mean_motion_ddot": 0,
        "tle_line1": "1 35784U 93036ASE 25334.10935596  .00001515  00000+0  39423-3 0  9998",
        "tle_line2": "2 35784  74.0362 113.4211 0042128 246.5375 113.1355 14.49985321655239"
      },
      "geometry": {
        "type": "Point",
        "coordinates": [
          -79.70603935191043,
          25.624608076100397
        ]
      }
    },
    {
      "type": "Feature",
      "properties": {
        "norad_id": 35786,
        "name": "COSMOS 2251 DEB",
        "group": "cosmos-2251-debris",
        "lat": -39.99739941474501,
        "lon": -103.32502499844612,
        "alt_km": 657.9508910548939,
        "timestamp": "2025-12-02T21:34:01.667385+00:00",
        "meta_object_name": "COSMOS 2251 DEB",
        "meta_object_id": "1993-036ASG",
        "meta_epoch": "2025-12-02T12:22:11.536320",
        "meta_mean_motion": 14.66021148,
        "meta_eccentricity": 0.0035031,
        "meta_inclination": 74.016,
        "meta_ra_of_asc_node": 63.4983,
        "meta_arg_of_pericenter": 195.5115,
        "meta_mean_anomaly": 164.4984,
        "meta_ephemeris_type": 0,
        "meta_classification_type": "U",
        "meta_norad_cat_id": 35786,
        "meta_element_set_no": 999,
        "meta_rev_at_epoch": 73258,
        "meta_bstar": 0.0015898,
        "meta_mean_motion_dot": 8.775e-05,
        "meta_mean_motion_ddot": 0,
        "tle_line1": "1 35786U 93036ASG 25336.51541130  .00008775  00000+0  15898-2 0  9998",
        "tle_line2": "2 35786  74.0160  63.4983 0035031 195.5115 164.4984 14.66021148732585"
      },
      "geometry": {
        "type": "Point",
        "coordinates": [
          -103.32502499844612,
          -39.99739941474501
        ]
      }
    },
    {
      "type": "Feature",
      "properties": {
        "norad_id": 35789,
        "name": "COSMOS 2251 DEB",
        "group": "cosmos-2251-debris",
        "lat": -72.06914155113734,
        "lon": -175.38101595180035,
        "alt_km": 805.5109495366223,
        "timestamp": "2025-12-02T21:34:01.667395+00:00",
        "meta_object_name": "COSMOS 2251 DEB",
        "meta_object_id": "1993-036ASK",
        "meta_epoch": "2025-11-30T08:09:35.692416",
        "meta_mean_motion": 14.35969306,
        "meta_eccentricity": 0.00469384,
        "meta_inclination": 74.039,
        "meta_ra_of_asc_node": 307.1301,
        "meta_arg_of_pericenter": 49.9649,
        "meta_mean_anomaly": 310.5607,
        "meta_ephemeris_type": 0,
        "meta_classification_type": "U",
        "meta_norad_cat_id": 35789,
        "meta_element_set_no": 999,
        "meta_rev_at_epoch": 61049,
        "meta_bstar": 0.00014941887,
        "meta_mean_motion_dot": 4.13e-06,
        "meta_mean_motion_ddot": 0,
        "tle_line1": "1 35789U 93036ASK 25334.33999644  .00000413  00000+0  14942-3 0  9997",
        "tle_line2": "2 35789  74.0390 307.1301 0046938  49.9649 310.5607 14.35969306610491"
      },
      "geometry": {
        "type": "Point",
        "coordinates": [
          -175.38101595180035,
          -72.06914155113734
        ]
      }
    },
    {
      "type": "Feature",
      "properties": {
        "norad_id": 35793,
        "name": "COSMOS 2251 DEB",
        "group": "cosmos-2251-debris",
        "lat": -64.97707310808548,
        "lon": -62.66872830645401,
        "alt_km": 641.9901164732191,
        "timestamp": "2025-12-02T21:34:01.667405+00:00",
        "meta_object_name": "COSMOS 2251 DEB",
        "meta_object_id": "1993-036ASP",
        "meta_epoch": "2025-11-29T00:24:11.235744",
        "meta_mean_motion": 14.78106278,
        "meta_eccentricity": 0.00040307,
        "meta_inclination": 74.0402,
        "meta_ra_of_asc_node": 87.138,
        "meta_arg_of_pericenter": 165.1184,
        "meta_mean_anomaly": 317.1346,
        "meta_ephemeris_type": 0,
        "meta_classification_type": "U",
        "meta_norad_cat_id": 35793,
        "meta_element_set_no": 999,
        "meta_rev_at_epoch": 65594,
        "meta_bstar": 0.0021008898,
        "meta_mean_motion_dot": 0.00015203,
        "meta_mean_motion_ddot": 0,
        "tle_line1": "1 35793U 93036ASP 25333.01679671  .00015203  00000+0  21009-2 0  9995",
        "tle_line2": "2 35793  74.0402  87.1380 0004030 165.1184 317.1346 14.78106278655944"
      },
      "geometry": {
        "type": "Point",
        "coordinates": [
          -62.66872830645401,
          -64.97707310808548
        ]
      }
    },
    {
      "type": "Feature",
      "properties": {
        "norad_id": 35824,
        "name": "COSMOS 2251 DEB",
        "group": "cosmos-2251-debris",
        "lat": -39.80165078457235,
        "lon": -100.31960230748265,
        "alt_km": 868.4658158241891,
        "timestamp": "2025-12-02T21:34:01.667415+00:00",
        "meta_object_name": "COSMOS 2251 DEB",
        "meta_object_id": "1993-036ASW",
        "meta_epoch": "2025-12-01T23:46:09.551712",
        "meta_mean_motion": 13.88347009,
        "meta_eccentricity": 0.02504054,
        "meta_inclination": 73.846,
        "meta_ra_of_asc_node": 67.2659,
        "meta_arg_of_pericenter": 155.2695,
        "meta_mean_anomaly": 206.0685,
        "meta_ephemeris_type": 0,
        "meta_classification_type": "U",
        "meta_norad_cat_id": 35824,
        "meta_element_set_no": 999,
        "meta_rev_at_epoch": 84078,
        "meta_bstar": 0.0016452195,
        "meta_mean_motion_dot": 2.507e-05,
        "meta_mean_motion_ddot": 0,
        "tle_line1": "1 35824U 93036ASW 25335.99038833  .00002507  00000+0  16452-2 0  9997",
        "tle_line2": "2 35824  73.8460  67.2659 0250405 155.2695 206.0685 13.88347009840783"
      },
      "geometry": {
        "type": "Point",
        "coordinates": [
          -100.31960230748265,
          -39.80165078457235
        ]
      }
    },
    {
      "type": "Feature",
      "properties": {
        "norad_id": 35825,
        "name": "COSMOS 2251 DEB",
        "group": "cosmos-2251-debris",
        "lat": 47.92840462282759,
        "lon": -39.565238739667635,
        "alt_km": 1144.0364910098797,
        "timestamp": "2025-12-02T21:34:01.667425+00:00",
        "meta_object_name": "COSMOS 2251 DEB",
        "meta_object_id": "1993-036ASX",
        "meta_epoch": "2025-11-18T20:38:01.180896",
        "meta_mean_motion": 13.70825357,
        "meta_eccentricity": 0.03535711,
        "meta_inclination": 74.1138,
        "meta_ra_of_asc_node": 181.8907,
        "meta_arg_of_pericenter": 283.1782,
        "meta_mean_anomaly": 73.0118,
        "meta_ephemeris_type": 0,
        "meta_classification_type": "U",
        "meta_norad_cat_id": 35825,
        "meta_element_set_no": 999,
        "meta_rev_at_epoch": 82181,
        "meta_bstar": 0.0013809564,
        "meta_mean_motion_dot": 1.891e-05,
        "meta_mean_motion_ddot": 0,
        "tle_line1": "1 35825U 93036ASX 25322.85973589  .00001891  00000+0  13810-2 0  9995",
        "tle_line2": "2 35825  74.1138 181.8907 0353571 283.1782  73.0118 13.70825357821819"
      },
      "geometry": {
        "type": "Point",
        "coordinates": [
          -39.565238739667635,
          47.92840462282759
        ]
      }
    }
  ]
}